QIANFAN-73              
1 63159U 25046A   25206.91893443  .00000106  00000+0  14550-3 0  9991
2 63159  88.9854 334.4266 0015844 161.7546 198.4176 13.50956782 28538
QIANFAN-74              
1 63160U 25046B   25206.90256081  .00000130  00000+0  18286-3 0  9990
2 63160  88.9854 334.3168 0001990  99.9961 260.1415 13.50961050 28593
QIANFAN-75              
1 63161U 25046C   25206.74206642  .00000111  00000+0  15349-3 0  9997
2 63161  88.9854 334.5649 0016914 165.5305 194.6334 13.50957591 28444
QIANFAN-76              
1 63162U 25046D   25206.81182512  .00000136  00000+0  19199-3 0  9999
2 63162  88.9854 334.5389 0014485 164.9233 195.2353 13.50953363 28463
QIANFAN-77              
1 63163U 25046E   25206.70439453  .00000332  00000+0  23237-3 0  9993
2 63163  88.9852 333.7045 0016019 151.2842 208.9220 13.96000292 28911
QIANFAN-78              
1 63164U 25046F   25206.92719205  .00000121  00000+0  16903-3 0  9992
2 63164  88.9853 334.3926 0015785 167.4704 192.6843 13.50956747 28558
QIANFAN-79              
1 63165U 25046G   25206.80779255  .00000135  00000+0  18984-3 0  9997
2 63165  88.9857 334.5069 0015506 166.0428 194.1155 13.50958924 28486
QIANFAN-80              
1 63166U 25046H   25206.89843330  .00000122  00000+0  16986-3 0  9999
2 63166  88.9855 334.2084 0014383 169.4158 190.7298 13.50959277 28659
